[{"OBJECT_NAME":"DONGPO 03","OBJECT_ID":"2022-098G","EPOCH":"2026-03-09T23:33:34.890048","MEAN_MOTION":15.70958192,"ECCENTRICITY":0.00010558,"INCLINATION":97.5452,"RA_OF_ASC_NODE":197.1326,"ARG_OF_PERICENTER":261.4023,"MEAN_ANOMALY":98.7119,"EPHEMERIS_TYPE":0,"CLASSIFICATION_TYPE":"U","NORAD_CAT_ID":53450,"ELEMENT_SET_NO":999,"REV_AT_EPOCH":19946,"BSTAR":0.0010143925,"MEAN_MOTION_DOT":0.00128253,"MEAN_MOTION_DDOT":0},{"OBJECT_NAME":"STARLINK-11194 [DTC]","OBJECT_ID":"2024-124E","EPOCH":"2026-03-09T12:47:20.154624","MEAN_MOTION":15.69732018,"ECCENTRICITY":0.00010788,"INCLINATION":53.1567,"RA_OF_ASC_NODE":161.7222,"ARG_OF_PERICENTER":148.5522,"MEAN_ANOMALY":211.5561,"EPHEMERIS_TYPE":0,"CLASSIFICATION_TYPE":"U","NORAD_CAT_ID":60187,"ELEMENT_SET_NO":999,"REV_AT_EPOCH":9651,"BSTAR":0.00015620389,"MEAN_MOTION_DOT":0.00018394,"MEAN_MOTION_DDOT":0}]
